GLOBALSTAR M075         
1 37192U 10054E   25274.61122556 -.00000082  00000+0  12072-3 0  9995
2 37192  51.9938 217.4990 0000516  62.9568 107.9276 12.62268103689285
GLOBALSTAR M073         
1 37193U 10054F   25274.82926904 -.00000083  00000+0  11615-3 0  9991
2 37193  52.0039 130.7372 0000818  95.7644 345.8035 12.62263153691307
GLOBALSTAR M083         
1 37739U 11033A   25274.43236315 -.00000067  00000+0  20389-3 0  9992
2 37739  51.9850  80.5266 0000950 100.3895 277.6190 12.62276542660276
GLOBALSTAR M088         
1 37740U 11033B   25273.64362520 -.00000079  00000+0  13973-3 0  9998
2 37740  52.0241 348.7311 0000528  95.5775  55.5934 12.62268184655712
GLOBALSTAR M091         
1 37741U 11033C   25274.84877124 -.00000072  00000+0  17838-3 0  9990
2 37741  52.0004 308.4107 0000563  91.4857  79.7805 12.62260171656658
GLOBALSTAR M085         
1 37742U 11033D   25274.67722220 -.00000082  00000+0  12388-3 0  9994
2 37742  52.0116 259.9985 0000604  80.8986  90.1001 12.62265183657146
GLOBALSTAR M081         
1 37743U 11033E   25274.38188935 -.00000066  00000+0  20895-3 0  9996
2 37743  51.9946 263.6288 0000420  96.3886  51.3274 12.62268872657252
GLOBALSTAR M089         
1 37744U 11033F   25274.58481418 -.00000096  00000+0  45611-4 0  9998
2 37744  51.9922 217.2171 0000338  41.6215 129.4415 12.62267281658124
